country,icao_code,airport_qid,airport,country_qid,country_name,administrative_entity_qid,administrative_entity,latitude,longitude,iata_code,hub_qid,hub,hub_latitude,hub_longitude
AL,LATI,Q217226,Tirana International Airport Nënë Tereza,Q222,Albania,Q229892,Tirana County,41.414722222222,19.720555555556,TIA,Q19689,Tirana,41.33,19.82
AT,LOWG,Q178162,Graz Airport,Q40,Austria,Q672464,Feldkirchen bei Graz,46.993055555556,15.439166666667,GRZ,Q13298,Graz,47.0708333333333,15.4386111111111
AT,LOWI,Q694434,Innsbruck Airport,Q40,Austria,Q1735,Innsbruck,47.260277777778,11.343888888889,INN,Q1735,Innsbruck,47.268333333333,11.393333333333
AT,LOWK,Q694404,Klagenfurt Airport,Q40,Austria,Q41753,Klagenfurt,46.642777777778,14.337222222222,KLU,Q41753,Klagenfurt,46.616666666667,14.3
AT,LOWL,Q700852,Linz Airport,Q40,Austria,Q675816,Hörsching,48.233333333333,14.1875,LNZ,Q41329,Linz,48.3,14.283333333333
AT,LOWS,Q251538,Salzburg Airport,Q40,Austria,Q34713,Salzburg,47.794444444444,13.003333333333,SZG,Q34713,Salzburg,47.7972,13.04768
AT,LOWW,Q32999,Wien-Schwechat Airport,Q40,Austria,Q489972,Schwechat,48.110278,16.569722,VIE,Q1741,Vienna,48.20833,16.373064
BA,LQBK,Q1430945,Banja Luka International Airport,Q225,Bosnia and Herzegovina,NA,NA,44.941388888889,17.2975,BNX,Q131127,Banja Luka,44.766666666667,17.183333333333
BA,LQSA,Q740392,Sarajevo International Airport,Q225,Bosnia and Herzegovina,Q12756621,Ilidža Municipality,43.824722222222,18.331388888889,SJJ,Q11194,Sarajevo,43.8563333333333,18.4132222222222
BA,LQTZ,Q1433133,Tuzla International Airport,Q225,Bosnia and Herzegovina,Q225,Bosnia and Herzegovina,44.458611111111,18.724722222222,TZL,Q18250,Tuzla Canton,44.55,18.6
BE,EBAW,Q17480,Antwerp International Airport,Q31,Belgium,Q12892,Antwerp,51.189444444444,4.4602777777778,ANR,Q12892,Antwerp,51.2211111111111,4.39972222222222
BE,EBLG,Q606067,Liege Airport,Q31,Belgium,Q683034,Grâce-Hollogne,50.637778,5.444167,LGG,Q3992,Liège,50.6397222222222,5.57055555555556
BE,EBOS,Q1432260,Ostend-Bruges International Airport,Q31,Belgium,Q12996,Ostend,51.200278,2.870278,OST,Q12994,Bruges,51.2088888888889,3.22416666666667
BG,LBBG,Q1324587,Burgas Airport,Q219,Bulgaria,Q369220,Burgas Province,42.570277777778,27.515277777778,BOJ,Q6509,Burgas,42.502965,27.470179
BG,LBSF,Q127951,Sofia Airport,Q219,Bulgaria,Q4442915,Sofia Capital Municipality,42.695,23.408333333333,SOF,Q472,Sofia,42.697886,23.321726
BG,LBWN,Q1423410,Varna Airport,Q219,Bulgaria,Q183487,Varna Province,43.231944444444,27.825277777778,VAR,Q6506,Varna,43.211375,27.91108
CH,LFSB,Q156971,EuroAirport Basel-Mulhouse-Freiburg,Q142,France,Q384516,Saint-Louis,47.59,7.5291666666667,BSL,Q78,Basel,47.560555555556,7.5905555555556
CH,LSGG,Q289972,Geneva International Airport,Q39,Switzerland,Q68230,Meyrin,46.238333333333,6.1094444444444,GVA,Q71,Geneva,46.2,6.15
CH,LSZH,Q15114,Zurich Airport,Q39,Switzerland,Q11943,Canton of Zürich,47.464722222222,8.5491666666667,ZRH,Q72,Zürich,47.378611111111,8.54
CH,LSZR,Q689836,St. Gallen-Altenrhein Airport,Q39,Switzerland,Q12746,Canton of St. Gallen,47.485,9.560833,ACH,Q25607,St. Gallen,47.423333333333,9.3772222222222
CY,LCLK,Q654636,Larnaca International Airport,Q229,Cyprus,Q171882,Larnaca,34.878888888889,33.630277777778,LCA,Q171882,Larnaca,34.916666666667,33.633333333333
CY,LCPH,Q1050707,Paphos International Airport,Q229,Cyprus,Q7806650,Timi,34.718333333333,32.485,PFO,Q59133,Paphos District,34.77682,32.419736
CZ,LKPR,Q99172,Prague Václav Havel Airport,Q213,Czech Republic,Q2331979,Ruzyně,50.100833333333,14.26,PRG,Q1085,Prague,50.083333333333,14.416666666667
CZ,LKTB,Q748848,Brno-Tuřany Airport,Q213,Czech Republic,Q8012740,Tuřany,49.1513888888889,16.6938888888889,BRQ,Q14960,Brno,49.195277777778,16.608333333333
DE,EDDC,Q657005,Dresden Airport,Q183,Germany,Q8931,Klotzsche,51.1343444444444,13.768,DRS,Q1731,Dresden,51.05,13.74
DE,EDDE,Q703794,Erfurt-Weimar Airport,Q183,Germany,Q1729,Erfurt,50.979722,10.958056,ERF,Q1729,Erfurt,50.978055555556,11.029166666667
DE,EDDG,Q673760,Münster Osnabrück International Airport,Q183,Germany,Q14917,Greven,52.134642,7.68483,FMO,Q2742,Münster,51.9625,7.6255555555556
DE,EDDK,Q157741,Cologne Bonn Airport,Q183,Germany,Q365,Cologne,50.865833333333,7.1427777777778,CGN,Q365,Cologne,50.942222222222,6.9577777777778
DE,EDDL,Q58226,Düsseldorf Airport,Q183,Germany,Q1868132,Lohausen,51.289444444444,6.7666666666667,DUS,Q1718,Düsseldorf,51.231144444444,6.7723805555556
DE,EDDM,Q131402,Munich Airport,Q183,Germany,Q285955,Hallbergmoos,48.353888888889,11.786111111111,MUC,Q1726,Munich,48.1375,11.575
DE,EDDN,Q265994,Nuremberg Airport,Q183,Germany,Q2090,Nuremberg,49.498611111111,11.078055555556,NUE,Q2090,Nuremberg,49.4538888888889,11.0775
DE,EDDP,Q668382,Leipzig/Halle Airport,Q183,Germany,Q12058,Schkeuditz,51.423888888889,12.236388888889,LEJ,Q2079,Leipzig,51.333333333333,12.383333333333
DE,EDDR,Q697101,Saarbrücken Airport,Q183,Germany,Q1724,Saarbrücken,49.214444444444,7.1094444444444,SCN,Q1724,Saarbrücken,49.233333333333,7
DE,EDDS,Q158732,Stuttgart Airport,Q183,Germany,Q7032,Filderstadt,48.69,9.2219444444444,STR,Q1022,Stuttgart,48.776111111111,9.1775
DE,EDDV,Q170169,Hannover Airport,Q183,Germany,Q4158,Langenhagen,52.460833333333,9.685,HAJ,Q1715,Hanover,52.374444444444,9.7386111111111
DE,EDDW,Q665365,Bremen Airport,Q183,Germany,Q882771,Neustadt,53.0473333333333,8.78666666666667,BRE,Q24879,Bremen,53.076944444444,8.8088888888889
DE,EDJA,Q651281,Memmingen Airport,Q183,Germany,Q547561,Memmingerberg,47.988888,10.239445,FMM,Q14825,Memmingen,47.987777777778,10.181111111111
DE,EDLP,Q685536,Paderborn Lippstadt Airport,Q183,Germany,Q183404,Büren,51.615277777778,8.6172222222222,PAD,Q2971,Paderborn,51.7166666666667,8.76666666666667
DE,EDLV,Q632410,Weeze Airport,Q183,Germany,Q243079,Weeze,51.601388888889,6.1419388888889,NRN,Q6246,Kleve,51.666666666667,6.25
DE,EDLW,Q313587,Dortmund Airport,Q183,Germany,Q2326741,Brackel (district),51.518333333333,7.6122222222222,DTM,Q1295,Dortmund,51.513888888889,7.4652777777778
DE,EDNY,Q682232,Friedrichshafen Airport,Q183,Germany,Q4051,Friedrichshafen,47.671388888889,9.5113888888889,FDH,Q4051,Friedrichshafen,47.654166666667,9.4791666666667
DE,EDSB,Q707457,Baden Airport,Q183,Germany,Q80597,Rheinmünster,48.7793527777778,8.0805,FKB,Q1040,Karlsruhe,49.016666666667,8.4
DE,ETNL,Q820223,Rostock Airport,Q183,Germany,Q565635,Laage,53.918333333333,12.278333333333,RLG,Q2861,Rostock,54.083333333333,12.133333333333
DK,EKAH,Q1341664,Aarhus Airport,Q35,Denmark,Q512581,Syddjurs Municipality,56.304166666667,10.619166666667,AAR,Q25319,Aarhus,56.156388888889,10.209722222222
DK,EKCH,Q206277,Copenhagen Airport,Q35,Denmark,Q282496,Tårnby Municipality,55.618055555556,12.656111111111,CPH,Q1748,Copenhagen,55.676111111111,12.568888888889
DK,EKEB,Q127148,Esbjerg Airport,Q35,Denmark,Q645747,Esbjerg Municipality,55.525833333333,8.5533333333333,EBJ,Q26234,Esbjerg,55.470833333333,8.4513888888889
DK,EKKA,Q127331,Midtjylland Airport,Q35,Denmark,Q502962,Viborg Municipality,56.2975,9.1247222222222,KRP,Q12327087,Middle Jutland,56.203,9.2207
DK,EKRN,Q835129,Bornholm Airport,Q35,Denmark,Q2598329,Bornholm regional municipality,55.063333333333,14.759444444444,RNN,Q769680,Bornholm,55.125,14.916666666667
DK,EKVG,Q371471,Vágar Airport,Q4628,Faroe Islands,Q648131,Sørvágs Municipality,62.0636,-7.2772,FAE,Q207675,Vágar,62.083333333333,-7.2666666666667
DK,EKYT,Q478620,Aalborg Airport,Q35,Denmark,Q300856,Aalborg Municipality,57.092777777778,9.8491666666667,AAL,Q25410,Aalborg,57.05,9.9166666666667
EE,EETN,Q630524,Tallinn Airport,Q191,Estonia,Q4450503,Tallinn City,59.416388888889,24.799166666667,TLL,Q1770,Tallinn,59.437222222222,24.745
EL,LGAL,Q1430762,Alexandroupolis International Airport,Q41,Greece,Q41,Greece,40.855869444444,25.956263888889,AXD,Q190847,Alexandroupoli,40.85,25.866666666667
EL,LGAV,Q211734,Athens International Airport,Q41,Greece,Q2353609,Spata-Artemida Municipality,37.936388888889,23.944444444444,ATH,Q1524,Athens,37.9841666666667,23.7280555555556
EL,LGBL,Q26453,Nea Anchialos National Airport,Q41,Greece,NA,NA,39.219444444444,22.794166666667,VOL,Q200036,Volos,39.361111111111,22.9425
EL,LGHI,Q2455220,Chios Island National Airport,Q41,Greece,Q1690590,Chios Municipality,38.343056,26.140556,JKH,Q160483,Chios,38.4,26.016666666667
EL,LGIO,Q3016766,Ioannina National Airport,Q41,Greece,NA,NA,39.696388888889,20.8225,IOA,Q183199,Ioannina,39.6636111111111,20.8522222222222
EL,LGIR,Q1142384,Heraklion International Airport,Q41,Greece,Q160544,Heraklion,35.339722,25.180278,HER,Q160544,Heraklion,35.3402777777778,25.1344444444444
EL,LGKF,Q1364927,Kefalonia International Airport,Q41,Greece,Q643695,Argostoli,38.12,20.500277777778,EFL,Q178488,Kefalonia,38.265,20.5525
EL,LGKL,Q924954,Kalamata International Airport,Q41,Greece,Q202484,Peloponnese Region,37.068383333333,22.025636111111,KLX,Q167895,Kalamata,37.0377777777778,22.1111111111111
EL,LGKO,Q1420601,Kos Island International Airport,Q41,Greece,Q173616,South Aegean,36.793336111111,27.091666666667,KGS,Q187027,Kos,36.815277777778,27.110277777778
EL,LGKP,Q1360757,Karpathos Island National Airport,Q41,Greece,Q204757,Karpathos,35.420683333333,27.146727777778,AOK,Q11874075,Karpathos Municipality,35.583333,27.133333
EL,LGKR,Q1144233,Corfu International Airport,Q41,Greece,Q842235,Corfu Prefecture,39.601945,19.912222,CFU,Q121378,Corfu,39.623888888889,19.82
EL,LGKV,Q676516,Kavala International Airport,Q41,Greece,Q2007855,Chrysoupoli,40.913333333333,24.619166666667,KVA,Q187352,Kavala,40.93959,24.40687
EL,LGLM,Q2670580,Lemnos International Airport,Q41,Greece,Q173620,North Aegean Region,39.917072222222,25.236308333333,LXS,Q192483,Lemnos,39.916666666667,25.25
EL,LGMK,Q1432110,Mykonos Island National Airport,Q41,Greece,Q173616,South Aegean,37.435111,25.348083,JMK,Q190210,Mykonos,37.45,25.333333333333
EL,LGML,Q2317895,Milos Island National Airport,Q41,Greece,Q203979,Milos,36.6969,24.4769,MLO,Q203979,Milos,36.733333333333,24.416666666667
EL,LGMT,Q1528995,Mytilene International Airport,Q41,Greece,Q173620,North Aegean Region,39.056666666667,26.598333333333,MJT,Q189059,Mytilene,39.103611111111,26.533055555556
EL,LGNX,Q2876106,Naxos Island National Airport,Q41,Greece,Q1242834,Naxos and Lesser Cyclades Municipality,37.0811111111111,25.3680555555556,JNX,Q188527,Naxos Island,37.083333333333,25.466666666667
EL,LGPA,Q28229923,New Paros Airport,Q41,Greece,Q18048733,Municipality of Paros,37.02083333,25.11305556,PAS,Q18048733,Municipality of Paros,37.08333,25.15
EL,LGPZ,Q1430743,Aktion National Airport,Q41,Greece,Q762668,Aktio-Vonitsa Municipality,38.93,20.772,PVK,Q213898,Preveza,38.95,20.75
EL,LGRP,Q833555,Rhodes International Airport,Q41,Greece,Q12875763,Rodos Municipality,36.405278,28.086112,RHO,Q43048,Rhodes,36.166666666667,28
EL,LGSA,Q1232348,Chania International Airport,Q41,Greece,Q182299,Chania,35.531747222222,24.149677777778,CHQ,Q182299,Chania,35.516666666667,24.016666666667
EL,LGSK,Q278449,Skiathos Island National Airport,Q41,Greece,Q7534982,Skiathos,39.177222,23.503611,JSI,Q515085,Skiathos,39.166666666667,23.483333333333
EL,LGSM,Q1432699,Samos International Airport,Q41,Greece,Q173620,North Aegean Region,37.69,26.911667,SMI,Q853527,Vathy,37.7475,26.9825
EL,LGSR,Q1432775,Santorini (Thira) National Airport,Q41,Greece,Q173616,South Aegean,36.399169444444,25.479333333333,JTR,Q129296,Santorini,36.416666666667,25.433333333333
EL,LGTS,Q127958,"Thessaloniki Airport ""Makedonia""",Q41,Greece,Q2010135,Mikra,40.519722,22.970917,SKG,Q17151,Thessaloniki,40.6402777777778,22.9355555555556
EL,LGZA,Q733326,Zakynthos International Airport,Q41,Greece,Q144880,Zakynthos,37.750833333333,20.884166666667,ZTH,Q144880,Zakynthos,37.8,20.75
ES,GCFV,Q1431349,Fuerteventura Airport,Q29,Spain,Q540185,Puerto del Rosario,28.452777777778,-13.863888888889,FUE,Q192534,Fuerteventura,28.4325,-14.003056
ES,GCHI,Q1431249,El Hierro Airport,Q29,Spain,Q1036287,El Hierro,27.814722222222,-17.886944444444,VDE,Q1036287,El Hierro,27.75,-18
ES,GCLA,Q978595,La Palma Airport,Q29,Spain,Q433986,Breña Baja,28.626388888889,-17.755555555556,SPC,Q201689,La Palma,28.666666666667,-17.866666666667
ES,GCLP,Q1130612,Gran Canaria Airport,Q29,Spain,Q178925,Gran Canaria,27.931944444444,-15.386666666667,LPA,Q178925,Gran Canaria,27.958611111111,-15.5925
ES,GCRR,Q1430865,César Manrique Lanzarote Airport,Q29,Spain,Q182432,Lanzarote,28.945556,-13.605278,ACE,Q962773,"San Bartolomé, Las Palmas",29.0016342148498,-13.6139314665816
ES,GEML,Q651392,Melilla Airport,Q29,Spain,Q5831,Melilla,35.279722222222,-2.9563888888889,MLN,Q5831,Melilla,35.2825,-2.9475
ES,LEAM,Q632277,Almería Airport,Q29,Spain,Q10400,Almería,36.843888888889,-2.37,LEI,Q10400,Almería,36.84,-2.4675
ES,LEBB,Q598197,Bilbao Airport,Q29,Spain,Q1228023,Loiu,43.301111,-2.910556,BIO,Q8692,Bilbao,43.262222222222,-2.9533333333333
ES,LEBL,Q56973,Josep Tarradellas Airport Barcelona-El Prat,Q29,Spain,Q15619,El Prat de Llobregat,41.296944,2.078333,BCN,Q1492,Barcelona,41.3825,2.1769444444444
ES,LECO,Q1430713,A Coruña Airport,Q29,Spain,Q1113450,Culleredo,43.301944444444,-8.3772222222222,LCG,Q8757,A Coruña,43.366666666667,-8.3833333333333009
ES,LEGE,Q1142410,Girona-Costa Brava Airport,Q29,Spain,Q13718,Vilobí d'Onyar,41.900833,2.760556,GRO,Q7038,Girona,41.983333333333,2.8166666666667
ES,LEGR,Q1431412,Federico García Lorca Granada Airport,Q29,Spain,Q82142,Granada Province,37.188611111111,-3.7772222222222,GRX,Q8810,Granada,37.178055555556,-3.6008333333333
ES,LEIB,Q1431549,Ibiza Airport,Q29,Spain,Q52631,Ibiza,38.872858,1.373117,IBZ,Q52631,Ibiza,38.98,1.43
ES,LEJR,Q586862,Jerez Airport,Q29,Spain,Q12303,Jerez de la Frontera,36.744722222222,-6.06,XRY,Q12303,Jerez de la Frontera,36.7,-6.1166666666667
ES,LEMD,Q166276,Adolfo Suarez Madrid-Barajas Airport,Q29,Spain,Q807230,Barajas,40.472222222222,-3.5608333333333,MAD,Q2807,Madrid,40.418888888889,-3.6919444444444
ES,LEMG,Q690894,Málaga Airport,Q29,Spain,Q5118319,Churriana (District 8),36.675,-4.499167,AGP,Q8851,Málaga,36.716666666667,-4.4166666666667
ES,LEMH,Q651372,Menorca Airport,Q29,Spain,Q49550,Mahon,39.8625,4.218611,MAH,Q49550,Mahon,39.889444444444,4.2641666666667
ES,LEMI,Q3015351,Región de Murcia International Airport,Q29,Spain,Q5789792,Corvera,37.803638888889,-1.1241111111111,RMU,Q5772,Region of Murcia,38,-1.8333333333333
ES,LEPA,Q656993,Palma de Mallorca Airport,Q29,Spain,Q8826,Palma,39.551675,2.7388083333333,PMI,Q8828,Mallorca,39.616666666667,2.9833333333333
ES,LEPP,Q1314151,Pamplona Airport,Q29,Spain,Q4018,Navarre,42.77,-1.647,PNA,Q10282,Pamplona,42.816666666667,-1.65
ES,LERS,Q1332979,Reus Airport,Q29,Spain,Q487096,Reus,41.1475,1.1672222222222,REU,Q487096,Reus,41.15487,1.10871
ES,LESO,Q1432736,San Sebastián Airport,Q29,Spain,Q492312,Hondarribia,43.356388888889,-1.7905555555556,EAS,Q10313,Donostia-San Sebastián,43.32,-1.98
ES,LEVC,Q20455825,Valencia Airport,Q29,Spain,Q1648590,Manises,39.489444444444,-0.48166666666667,VLC,Q8818,Valencia,39.47,-0.376388888888889
ES,LEVD,Q1433170,Valladolid Airport,Q29,Spain,Q1651671,Villanubla,41.706111111111,-4.8519444444444,VLL,Q1651671,Villanubla,41.711388888889,-4.8447222222222
ES,LEVT,Q695135,Vitoria Airport,Q29,Spain,Q14318,Vitoria-Gasteiz,42.882777777778,-2.7244444444444,VIT,Q14318,Vitoria-Gasteiz,42.846666666667,-2.6730555555556
ES,LEVX,Q1416876,Vigo-Peinador Airport,Q29,Spain,Q95086,Pontevedra Province,42.229166666667,-8.6275,VGO,Q8745,Vigo,42.235833333333,-8.7266666666667
ES,LEXJ,Q1432772,Santander Airport,Q29,Spain,Q1635185,Real Valle de Camargo,43.426944,-3.82,SDR,Q12233,Santander,43.466666666667,-3.8
ES,LEZG,Q704823,Zaragoza Airport,Q29,Spain,Q10305,Zaragoza,41.666111111111,-1.0416666666667,ZAZ,Q10305,Zaragoza,41.65,-0.88333333333333
ES,LEZL,Q1344758,San Pablo Airport,Q29,Spain,Q8717,Seville,37.418056,-5.898889,SVQ,Q8717,Seville,37.383333333333,-5.9833333333333
FI,EFHK,Q215327,Helsinki Airport,Q33,Finland,Q127623,Vantaa,60.317222222222,24.963333333333,HEL,Q1757,Helsinki,60.17556,24.93417
FI,EFIV,Q850269,Ivalo Airport,Q33,Finland,Q755702,Inari,68.610833333333,27.413888888889,IVL,Q755702,Inari,68.9054698,27.0176022
FI,EFJO,Q370924,Joensuu Airport,Q33,Finland,Q608803,Liperi,62.658888888889,29.624444444444,JOE,Q186237,Joensuu,62.6,29.763888888889
FI,EFJY,Q143224,Jyväskylä Airport,Q33,Finland,Q999242,Jyväskylän maalaiskunta,62.400833333333,25.672777777778,JYV,Q134620,Jyväskylä,62.233333333333,25.733333333333
FI,EFKI,Q739238,Kajaani Airport,Q33,Finland,Q3433327,Kajaani rural municipality,64.284166666667,27.6875,KAJ,Q193180,Kajaani,64.225,27.733333333333
FI,EFKS,Q530071,Kuusamo Airport,Q33,Finland,Q207999,Kuusamo,65.990277777778,29.231944444444,KAO,Q207999,Kuusamo,65.966666666667,29.166666666667
FI,EFKT,Q1347310,Kittilä Airport,Q33,Finland,Q593942,Kittilä,67.698611111111,24.848055555556,KTT,Q593942,Kittilä,67.6531279,24.9114375
FI,EFKU,Q973283,Kuopio Airport,Q33,Finland,Q999210,Siilinjärvi,63.008611111111,27.794444444444,KUO,Q162279,Kuopio,62.8925,27.678333333333
FI,EFOU,Q1131604,Oulu Airport,Q33,Finland,Q47048,Oulu,64.929166666667,25.355555555556,OUL,Q47048,Oulu,65.0141666666667,25.4719444444444
FI,EFRO,Q1323139,Rovaniemi Airport,Q33,Finland,Q970512,Rovaniemen maalaiskunta,66.561666666667,25.830833333333,RVN,Q103717,Rovaniemi,66.5027903,25.7284789
FI,EFTP,Q1126306,Tampere-Pirkkala Airport,Q33,Finland,Q853628,Pirkkala,61.415277777778,23.587777777778,TMP,Q40840,Tampere,61.4980555555556,23.76
FI,EFTU,Q1130231,Turku Airport,Q33,Finland,Q38511,Turku,60.514722222222,22.261666666667,TKU,Q38511,Turku,60.451666666667,22.27
FI,EFVA,Q1322467,Vaasa Airport,Q33,Finland,Q125080,Vaasa,63.045277777778,21.764166666667,VAA,Q125080,Vaasa,63.1,21.616666666667
FR,FMCZ,Q642313,Dzaoudzi Pamandzi International Airport,Q142,France,Q1010634,Pamandzi,-12.806667,45.280555,DZA,Q846048,Dzaoudzi,-12.788333333333,45.2725
FR,FMEE,Q17430,Roland Garros Airport,Q142,France,Q662942,Sainte-Marie,-20.89,55.516388888889,RUN,Q47045,Saint-Denis,-20.878888888889,55.448055555556
FR,LFBD,Q612731,Bordeaux–Mérignac Airport,Q142,France,Q205551,Mérignac,44.828333,-0.715556,BOD,Q1479,Bordeaux,44.837777777778,-0.57944444444444
FR,LFBE,Q619977,Bergerac Dordogne Périgord Airport,Q142,France,Q187911,Bergerac,44.824444444444,0.52055555555556,EGC,Q187911,Bergerac,44.851111111111,0.48194444444444
FR,LFBH,Q1431840,La Rochelle – Île de Ré Airport,Q142,France,Q82185,La Rochelle,46.179166666667,-1.1952777777778,LRH,Q82185,La Rochelle,46.159444444444,-1.1513888888889
FR,LFBL,Q764655,Limoges – Bellegarde Airport,Q142,France,Q45656,Limoges,45.860833,1.180278,LIG,Q45656,Limoges,45.834444444444,1.2616666666667
FR,LFBO,Q372615,Toulouse–Blagnac Airport,Q142,France,Q271068,Blagnac,43.635,1.367778,TLS,Q7880,Toulouse,43.604444444444,1.4438888888889
FR,LFBP,Q1432335,Pau Pyrénées Airport,Q142,France,Q197376,Uzein,43.38,-0.41861111111111,PUF,Q132671,Pau,43.300833333333,-0.37
FR,LFBT,Q1431952,Tarbes-Lourdes-Pyrénées Airport,Q142,France,Q777902,Ossun,43.185,-0.0019444444444444,LDE,Q184023,Tarbes,43.232777777778,0.074444444444444
FR,LFBZ,Q620101,Biarritz – Anglet – Bayonne Airport,Q142,France,Q191765,Anglet,43.468333333333,-1.5233333333333,BIQ,Q132790,Biarritz,43.480555555556,-1.5572222222222
FR,LFJL,Q1432038,Metz-Nancy-Lorraine Airport,Q142,France,Q21704,Goin,48.978333333333,6.2466666666667,ETZ,Q22690,Metz,49.119722222222,6.1769444444444
FR,LFKB,Q1430951,Bastia – Poretta Airport,Q142,France,Q677911,Lucciana,42.55,9.4847222222222,BIA,Q134698,Bastia,42.7,9.4494444444444
FR,LFKC,Q1431045,Calvi – Sainte-Catherine Airport,Q142,France,Q202439,Calvi,42.525,8.79,CLY,Q202439,Calvi,42.567777777778,8.7566666666667
FR,LFKF,Q1431300,Figari Sud-Corse Airport,Q142,France,Q431574,Figari,41.502222222222,9.0966666666667,FSC,Q241567,Porto-Vecchio,41.590833333333,9.2797222222222
FR,LFKJ,Q583453,Ajaccio Napoleon Bonaparte Airport,Q142,France,Q40104,Ajaccio,41.923888888889,8.8025,AJA,Q40104,Ajaccio,41.925555555556,8.7363888888889
FR,LFLB,Q1431076,Chambéry Airport,Q142,France,Q549492,Viviers-du-Lac,45.64,5.8811111111111,CMF,Q165090,Chambéry,45.566388888889,5.9208333333333
FR,LFLC,Q1431123,Clermont-Ferrand Auvergne Airport,Q142,France,Q775445,Aulnat,45.785833333333,3.1625,CFE,Q42168,Clermont-Ferrand,45.779722222222,3.0869444444444
FR,LFLL,Q1547,Lyon-Saint Exupéry Airport,Q142,France,Q752476,Colombier-Saugnieu,45.725555555556,5.0811111111111,LYS,Q456,Lyon,45.758888888889,4.8413888888889
FR,LFLS,Q1431422,Grenoble-Isère Airport,Q142,France,Q1062444,Saint-Étienne-de-Saint-Geoirs,45.363055,5.332778,GNB,Q1289,Grenoble,45.186944444444,5.7263888888889
FR,LFMK,Q667181,Carcassonne Airport,Q142,France,Q6582,Carcassonne,43.215833333333,2.3086111111111,CCF,Q6582,Carcassonne,43.215833333333,2.3513888888889
FR,LFML,Q651190,Marseille Provence Airport,Q142,France,Q243317,Marignane,43.436666666667,5.215,MRS,Q23482,Marseille,43.296666666667,5.3763888888889
FR,LFMN,Q821557,Nice Côte d'Azur Airport,Q142,France,Q33959,Nice,43.665277777778,7.215,NCE,Q33959,Nice,43.701944444444,7.2683333333333
FR,LFMP,Q1432351,Perpignan–Rivesaltes Airport,Q142,France,Q6730,Perpignan,42.740555555556,2.8705555555556,PGF,Q6730,Perpignan,42.6975,2.8947222222222
FR,LFMT,Q575865,Montpellier – Méditerranée Airport,Q142,France,Q753087,Mauguio,43.578872222222,3.9592861111111,MPL,Q6441,Montpellier,43.610919444444,3.8772305555556
FR,LFMU,Q619817,Béziers Cap d'Agde Airport,Q142,France,Q815683,Vias,43.323333333333,3.3533333333333,BZR,Q174019,Béziers,43.343333333333,3.2161111111111
FR,LFOK,Q1837108,Châlons Vatry Airport,Q142,France,Q686385,Vatry,48.777777777778,4.1916666666667,XCR,Q47135,Châlons-en-Champagne,48.956666666667,4.3644444444444
FR,LFOT,Q1433087,Tours Val de Loire Airport,Q142,France,Q288,Tours,47.431944444444,0.72305555555556,TUF,Q288,Tours,47.392777777778,0.68833333333333
FR,LFQQ,Q1431888,Lille Airport,Q142,France,Q696996,Lesquin,50.563333333333,3.0869444444444,LIL,Q648,Lille,50.631944444444,3.0575
FR,LFRB,Q1191525,Brest Bretagne Airport,Q142,France,Q325889,Guipavas,48.447222,-4.421667,BES,Q12193,Brest,48.39,-4.4869444444444
FR,LFRD,Q1431220,Dinard–Pleurtuit–Saint-Malo Airport,Q142,France,Q598335,Pleurtuit,48.58976,-2.07584,DNR,Q163108,Saint-Malo,48.647222222222,-2.0088888888889
FR,LFRG,Q1708737,Deauville – Saint-Gatien Airport,Q142,France,Q651841,Saint-Gatien-des-Bois,49.365277777778,0.15416666666667,DOL,Q209021,Deauville,49.359166666667,0.074444444444444
FR,LFRK,Q1431038,Caen – Carpiquet Airport,Q142,France,Q839827,Carpiquet,49.173333,-0.45,CFR,Q41185,Caen,49.182222222222,-0.37055555555556
FR,LFRN,Q1432593,Rennes – Saint-Jacques Airport,Q142,France,Q535371,Saint-Jacques-de-la-Lande,48.06833,-1.72611,RNS,Q647,Rennes,48.114166666667,-1.6808333333333
FR,LFRS,Q1432144,Nantes Atlantique Airport,Q142,France,Q291197,Bouguenais,47.156944444444,-1.6077777777778,NTE,Q12191,Nantes,47.217222222222,-1.5538888888889
FR,LFSB,Q156971,EuroAirport Basel-Mulhouse-Freiburg,Q142,France,Q384516,Saint-Louis,47.59,7.5291666666667,BSL,Q78,Basel,47.560555555556,7.5905555555556
FR,LFST,Q1165367,Strasbourg Airport,Q142,France,Q22438,Entzheim,48.541944,7.634444,SXB,Q6602,Strasbourg,48.573333333333,7.7522222222222
FR,LFTH,Q543189,Toulon-Hyères Airport,Q142,France,Q192574,Hyères,43.097222222222,6.1461111111111,TLN,Q44160,Toulon,43.125,5.9305555555556
FR,LFTW,Q1432215,Nîmes-Alès-Camargue-Cévennes Airport,Q142,France,Q243024,Saint-Gilles,43.7575,4.4163888888889,FNI,Q42807,Nîmes,43.836944444444,4.36
FR,SOCA,Q794542,Cayenne – Félix Eboué Airport,Q142,France,Q816739,Matoury,4.8197222222222,-52.361944444444,CAY,Q44401,Cayenne,4.9386111111111,-52.335
FR,SOOA,Q649881,Maripasoula Airport,Q142,France,Q846239,Maripasoula,3.6575,-54.03722222,MPY,Q846239,Maripasoula,3.6411111111111,-54.027777777778
FR,TFFF,Q651330,Martinique Aimé Césaire International Airport,Q142,France,Q947069,Le Lamentin,14.592222222222,-60.996388888889,FDF,Q81621,Fort-de-France,14.6,-61.0666666666667
FR,TFFG,Q1432662,L'Espérance Airport,Q142,France,Q3113437,Grand Case,18.099913888889,-63.047197222222,SFG,Q25596,Saint Martin,18.066666666667,-63.05
FR,TFFJ,Q38805,Gustaf III Airport,Q142,France,Q25362,Saint Barthélemy,17.904444444444,-62.843888888889,SBH,Q25362,Saint Barthélemy,17.897728,-62.8342438
FR,TFFR,Q1156872,Pointe-à-Pitre International Airport,Q142,France,Q13636,Les Abymes,16.264166666667,-61.525833333333,PTP,Q335322,Pointe-à-Pitre,16.241111111111,-61.533055555556
HR,LDDU,Q1147000,Dubrovnik Airport,Q224,Croatia,Q2636825,Čilipi,42.561388888889,18.268333333333,DBV,Q221350,Cavtat,42.579444444444,18.220833333333
HR,LDPL,Q389327,Pula Airport,Q224,Croatia,NA,NA,44.893611111111,13.922222222222,PUY,Q4656,Pula,44.866666666667,13.833333333333
HR,LDSP,Q1125392,Split Airport,Q224,Croatia,Q1663,Split,43.538888888889,16.298055555556,SPU,Q1663,Split,43.51,16.45
HR,LDZA,Q128016,Zagreb Airport,Q224,Croatia,Q331141,Velika Gorica,45.743055555556,16.068888888889,ZAG,Q1435,Zagreb,45.8130555555556,15.9772222222222
HR,LDZD,Q155359,Zadar Airport,Q224,Croatia,Q189412,Zemunik Donji,44.108333333333,15.346666666667,ZAD,Q3370,Zadar,44.116666666667,15.216666666667
HU,LHBP,Q500945,Budapest Ferenc Liszt International Airport,Q28,Hungary,Q1781,Budapest,47.439444444444,19.261944444444,BUD,Q1781,Budapest,47.498333333333,19.040833333333
HU,LHDC,Q903138,Debrecen International Airport,Q28,Hungary,Q185368,Hajdú-Bihar County,47.488888888889,21.615277777778,DEB,Q79880,Debrecen,47.53,21.639166666667
IE,EICK,Q1345361,Cork Airport,Q27,Ireland,Q4852272,Ballyphehane,51.841388888889,-8.4911111111111,ORK,Q36647,Cork,51.9,-8.4730555555556
IE,EIDW,Q178021,Dublin Airport,Q27,Ireland,Q520000,County Fingal,53.421388888889,-6.27,DUB,Q1761,Dublin,53.3497222222222,-6.26027777777778
IE,EIKN,Q848921,Ireland West Airport Knock,Q27,Ireland,Q164421,Connacht,53.910297,-8.8184920000000009,NOC,Q164421,Connacht,53.78,-9.05
IE,EIKY,Q1431699,Kerry Airport,Q27,Ireland,Q2043304,Farranfore,52.180833333333,-9.5238888888889,KIR,Q213358,Tralee,52.2675,-9.6962
IE,EINN,Q584102,Shannon Airport,Q27,Ireland,Q611919,Shannon,52.701944444444,-8.9247222222222,SNN,Q133315,Limerick,52.6653,-8.6238
IS,BIAR,Q1430749,Akureyri Airport,Q189,Iceland,Q241551,Northeastern Region,65.659994444444,-18.072702777778,AEY,Q29042,Akureyri,65.683333333333,-18.1
IS,BIEG,Q974363,Egilsstaðir Airport,Q189,Iceland,Q220663,Austurland,65.283333333333,-14.401388888889,EGS,Q14453,Egilsstaðir,65.26666667,-14.4
IS,BIIS,Q1433313,Ísafjörður Airport,Q189,Iceland,NA,NA,66.058055555556,-23.135277777778,IFJ,Q106896,Ísafjörður,66.073777777778,-23.141719444444
IT,LIBC,Q687300,Crotone Airport,Q38,Italy,Q54509,Isola di Capo Rizzuto,38.997222222222,17.080277777778,CRV,Q6681,Crotone,39.083333333333,17.116666666667
IT,LIBD,Q779805,Bari Karol Wojtyła Airport,Q38,Italy,Q3519,Bari,41.138855555556,16.760594444444,BRI,Q3519,Bari,41.125277777778,16.866666666667
IT,LIBP,Q1432361,Abruzzo Airport,Q38,Italy,Q2704,Pescara,42.437222222222,14.187222222222,PSR,Q2704,Pescara,42.464277777778,14.214188888889
IT,LIBR,Q849715,Brindisi Airport,Q38,Italy,Q13496,Brindisi,40.6575,17.946944444444,BDS,Q13496,Brindisi,40.638333333333,17.945833333333
IT,LICA,Q1431860,Lamezia Terme International Airport,Q38,Italy,Q53643,Lamezia Terme,38.905277777778,16.242222222222,SUF,Q53643,Lamezia Terme,38.966666666667,16.3
IT,LICB,Q1431127,Comiso Airport,Q38,Italy,Q34072,Comiso,36.991666666667,14.606944444444,CIY,Q34072,Comiso,36.95,14.6
IT,LICC,Q540273,Catania-Fontanarossa Airport,Q38,Italy,Q1903,Catania,37.466666666667,15.063888888889,CTA,Q1903,Catania,37.502669444444,15.087269444444
IT,LICD,Q507771,Lampedusa Airport,Q38,Italy,Q107338,Lampedusa,35.497778,12.618056,LMP,Q107338,Lampedusa,35.516666666667,12.583333333333
IT,LICG,Q510715,Pantelleria Airport,Q38,Italy,Q481758,Pantelleria,36.8138888888889,11.9655555555556,PNL,Q481758,Pantelleria,36.7875,11.9925
IT,LICJ,Q630645,Falcone–Borsellino Airport,Q38,Italy,Q388229,Cinisi,38.181944444444,13.099444444444,PMO,Q2656,Palermo,38.115658,13.361262
IT,LICR,Q1432582,Reggio Calabria Airport,Q38,Italy,Q8471,Reggio Calabria,38.071944444444,15.653611111111,REG,Q8471,Reggio Calabria,38.114438888889,15.65
IT,LICT,Q658537,Vincenzo Florio Airport Trapani-Birgi,Q38,Italy,Q105582817,Misiliscemi,37.911944444444,12.493333333333,TPS,Q13664,Trapani,38.0175,12.515
IT,LIEA,Q1321390,Aeroporto di Alghero-Fertilia,Q38,Italy,Q166282,Alghero,40.631111111111,8.2886111111111,AHO,Q166282,Alghero,40.56,8.315
IT,LIEE,Q139983,Cagliari Elmas Airport,Q38,Italy,Q283906,Elmas,39.251469444444,9.0542833333333,CAG,Q1897,Cagliari,39.216666666667,9.1166666666667
IT,LIEO,Q1432236,Olbia Costa Smeralda Airport,Q38,Italy,Q13630,Olbia,40.898661111111,9.5176277777778,OLB,Q13630,Olbia,40.916666666667,9.5
IT,LIMF,Q528184,Turin Airport,Q38,Italy,Q9210,Caselle Torinese,45.201787,7.649595,TRN,Q495,Turin,45.066666666667,7.7
IT,LIMJ,Q1431383,Genoa Cristoforo Colombo Airport,Q38,Italy,Q1449,Genoa,44.41348,8.837563,GOA,Q1449,Genoa,44.407186111111,8.9339833333333
IT,LIMP,Q1432326,Parma Airport,Q38,Italy,Q2683,Parma,44.822222222222,10.295277777778,PMF,Q2683,Parma,44.801472222222,10.328
IT,LIMZ,Q130270,Cuneo International Airport,Q38,Italy,Q20489,Savigliano,44.54595,7.62182,CUF,Q5968,Cuneo,44.383333333333,7.55
IT,LIPE,Q389241,Bologna Guglielmo Marconi Airport,Q38,Italy,Q1891,Bologna,44.535444444444,11.288666666667,BLQ,Q1891,Bologna,44.493888888889,11.342777777778
IT,LIPQ,Q893154,Trieste – Friuli Venezia Giulia Airport,Q38,Italy,Q53137,Ronchi dei Legionari,45.82123,13.48557,TRS,Q546,Trieste,45.6502777777778,13.7702777777778
IT,LIPR,Q1140972,Federico Fellini International Airport,Q38,Italy,Q13369,Rimini,44.019444444444,12.609444444444,RMI,Q13369,Rimini,44.059444444444,12.568333333333
IT,LIPX,Q1433197,Verona Villafranca Airport,Q38,Italy,Q47614,Villafranca di Verona,45.396388,10.888055,VRN,Q2028,Verona,45.4386111111111,10.9927777777778
IT,LIPY,Q1155932,Ancona Falconara Airport,Q38,Italy,Q124005,Falconara Marittima,43.616111111111,13.362222222222,AOI,Q3415,Ancona,43.616666666667,13.516666666667
IT,LIRN,Q849383,Naples International Airport,Q38,Italy,Q1085929,San Pietro a Patierno,40.884444444444,14.290833333333,"NAP",Q2634,Naples,40.833333333333,14.25
IT,LIRP,Q709169,Pisa International Airport,Q38,Italy,Q13375,Pisa,43.683888888889,10.3925,PSA,Q13375,Pisa,43.716666666667,10.4
IT,LIRQ,Q707731,"Florence Airport, Peretola",Q38,Italy,Q2044,Florence,43.808763,11.202905,FLR,Q2044,Florence,43.771388888889,11.254166666667
IT,LIRZ,Q1371018,Perugia San Francesco d'Assisi – Umbria International Airport,Q38,Italy,Q3437,Perugia,43.0954070870846,12.5028040338365,PEG,Q3437,Perugia,43.1121,12.3888
LT,EYKA,Q847695,Kaunas Airport,Q37,Lithuania,Q1734094,Karmėlava,54.963888888889,24.084722222222,KUN,Q4115712,Kaunas,54.9,23.933333333333
LT,EYPA,Q1332588,Palanga International Airport,Q37,Lithuania,NA,NA,55.973333333333,21.093888888889,PLQ,Q2047414,Palanga,55.916666666667,21.063888888889
LT,EYVI,Q847711,Vilnius Airport,Q37,Lithuania,Q216,Vilnius,54.636944444444,25.287777777778,VNO,Q216,Vilnius,54.683333333333,25.283333333333
LU,ELLX,Q872186,Luxembourg Airport,Q32,Luxembourg,Q985476,Sandweiler,49.623333333333,6.2044444444444,LUX,Q1842,Luxembourg,49.610555555556,6.1327777777778
LV,EVRA,Q505421,Riga International Airport,Q211,Latvia,Q2232018,Mārupe Municipality,56.920833333333,23.970833333333,RIX,Q1773,Riga,56.9475,24.106944444444
MD,LUKK,Q844951,Chișinău International Airport,Q217,Moldova,Q21197,Chișinău,46.927777777778,28.930833333333,KIV,Q21197,Chișinău,47.0227777777778,28.8352777777778
ME,LYPG,Q844825,Podgorica Airport,Q236,Montenegro,Q1190698,Golubovci,42.359444444444,19.251944444444,TGD,Q23564,Podgorica,42.439722222222,19.266111111111
ME,LYTV,Q659349,Tivat Airport,Q236,Montenegro,Q3044092,Mrčevac,42.404722222222,18.723333333333,TIV,Q223469,Tivat,42.43,18.7
MK,LWOH,Q127157,"Ohrid ""St. Paul the Apostle"" Airport",Q221,North Macedonia,Q1323340,Debarca Municipality,41.18,20.742222222222,OHD,Q1223508,Ohrid,41.116944444444,20.801944444444
MK,LWSK,Q1142389,Skopje International Airport,Q221,North Macedonia,Q21115,Skopje Statistical Region,41.9611111111111,21.6269444444444,SKP,Q384,Skopje,41.983333333333,21.433333333333
MT,LMML,Q672289,Malta International Airport,Q233,Malta,Q475585,Luqa,35.8575,14.4775,MLA,Q233,Malta,35.883333333333,14.5
NL,EHAM,Q9694,Amsterdam Airport Schiphol,Q55,Netherlands,Q9924,Haarlemmermeer,52.3081,4.7641694444444,AMS,Q727,Amsterdam,52.383333333333,4.9
NL,EHBK,Q698063,Maastricht Aachen Airport,Q55,Netherlands,Q9806,Beek,50.912558,5.769536,MST,Q1309,Maastricht,50.866666666667,5.6833333333333
NL,EHEH,Q1348234,Eindhoven Airport,Q55,Netherlands,Q9832,Eindhoven,51.450556,5.374167,EIN,Q9832,Eindhoven,51.434444444444,5.4841666666667
NL,EHGG,Q769099,Groningen Airport Eelde,Q55,Netherlands,Q840457,Tynaarlo,53.120556,6.578056,GRQ,Q749,Groningen,53.2185277777778,6.567
NL,EHRD,Q656807,Rotterdam The Hague Airport,Q55,Netherlands,Q2680952,Rotterdam,51.95,4.4333333333333,RTM,Q34370,Rotterdam,51.9225,4.47917
NO,ENAL,Q175897,"Ålesund Airport, Vigra",Q20,Norway,Q494670,Giske,62.5625,6.1197222222222,AES,Q62266,Ålesund,62.4712388888889,6.15423888888889
NO,ENAN,Q2900393,Andøya Airport,Q20,Norway,Q113710,Andøy,69.2925,16.144166666667,ANX,Q167305,Andenes,69.313888888889,16.118055555556
NO,ENAT,Q1430778,Alta Airport,Q20,Norway,Q6535,Alta,69.976111,23.371667,ALF,Q6535,Alta,69.976666666667,23.295833333333
NO,ENBN,Q1431005,"Brønnøysund Airport, Brønnøy",Q20,Norway,Q112855,Brønnøy,65.461111111111,12.2175,BNN,Q995929,Brønnøysund,65.4749,12.21196
NO,ENBO,Q39164,Bodø Airport,Q20,Norway,Q221119,Bodø,67.269166666667,14.365277777778,BOO,Q39383,Bodø,67.28267,14.37513
NO,ENBR,Q619980,Bergen Airport,Q20,Norway,Q10428388,Bergen Municipality,60.293611111111,5.2180611111111,BGO,Q26793,Bergen,60.3925,5.3233333333333
NO,ENCN,Q1431790,"Kristiansand Airport, Kjevik",Q20,Norway,Q1025357,Tveit,58.203888888889,8.085,KRS,Q2415,Kristiansand,58.14672222,7.99561111
NO,ENDU,Q2088518,Bardufoss Airport,Q20,Norway,Q488955,Målselv,69.055833333333,18.540277777778,BDU,Q488955,Målselv,68.975,19.064444444444
NO,ENFL,Q2899363,Florø Airport,Q20,Norway,Q493811,Flora,61.583611111111,5.0247222222222,FRO,Q1020010,Florø,61.598611111111,5.0172222222222
NO,ENGM,Q210559,Oslo Airport,Q20,Norway,Q57862,Nannestad,60.19392,11.10036,OSL,Q585,Oslo,59.911111111111,10.752777777778
NO,ENHD,Q1431464,"Haugesund Airport, Karmøy",Q20,Norway,Q483902,Karmøy,59.343333333333,5.2125,HAU,Q109036,Haugesund,59.41015,5.27551
NO,ENHF,Q1881702,Hammerfest Airport,Q20,Norway,Q107351,Hammerfest,70.679722222222,23.668611111111,HFT,Q107351,Hammerfest,70.663333,23.677778
NO,ENHK,Q257433,Hasvik Airport,Q20,Norway,Q109841,Hasvik,70.486666666667,22.139722222222,HAA,Q109841,Hasvik,70.591666666667,22.302777777778
NO,ENKB,Q762039,"Kristiansund Airport, Kvernberget",Q20,Norway,Q109483,Kristiansund Municipality,63.111944444444,7.8261111111111,KSU,Q109483,Kristiansund Municipality,63.11152,7.73198
NO,ENKR,Q1431737,"Kirkenes Airport, Høybuktmoen",Q20,Norway,Q48827,Sør-Varanger,69.725,29.887777777778,KKN,Q209423,Kirkenes,69.72708,30.04511
NO,ENLK,Q2673185,Leknes Airport,Q20,Norway,Q507201,Vestvågøy,68.154166666667,13.616666666667,LKN,Q1993766,Leknes,68.1475,13.6115
NO,ENML,Q1618505,Molde Airport,Q20,Norway,Q104095,Molde,62.744722222222,7.2625,MOL,Q104095,Molde,62.733333,7.183333
NO,ENMS,Q3503973,Mosjøen Airport,Q20,Norway,Q503654,Vefsn,65.783997222222,13.214913888889,MJF,Q851998,Mosjøen,65.833333333333,13.2
NO,ENNA,Q2763148,"Lakselv Airport, Banak",Q20,Norway,Q483885,Porsanger,70.066666666667,24.973888888889,LKL,Q531041,Lakselv,70.05132,24.96438
NO,ENOV,Q1618487,Ørsta-Volda Airport,Q20,Norway,Q156453,Ørsta,62.178611111111,6.0758333333333,HOV,Q10728780,Ørsta,62.1997,6.12889
NO,ENRA,Q26504,Mo i Rana Airport,Q20,Norway,Q484322,Rana,66.363888888889,14.301666666667,MQN,Q59169,Mo i Rana,66.316666666667,14.166666666667
NO,ENSB,Q59633,Svalbard Airport,Q20,Norway,Q25231,Svalbard,78.246111111111,15.465555555556,LYR,Q25923,Longyearbyen,78.216666666667,15.633333333333
NO,ENSG,Q1703550,"Sogndal Airport, Haukåsen",Q20,Norway,Q490923,Sogndal,61.157222222222,7.1380555555556,SOG,Q490923,Sogndal,61.229722,7.100556
NO,ENSH,Q1703557,Svolvær Airport,Q20,Norway,Q490246,Vågan,68.2433,14.6692,SVJ,Q145948,Svolvær,68.233333333333,14.566666666667
NO,ENSK,Q1703543,Stokmarknes Airport,Q20,Norway,Q484043,Hadsel,68.580833333333,15.026111111111,SKN,Q288577,Stokmarknes,68.565555555556,14.905833333333
NO,ENSR,Q1432968,Sørkjosen Airport,Q20,Norway,Q494059,Nordreisa,69.786666666667,20.959722222222,SOJ,Q1019566,Sørkjosen,69.789167,20.950833
NO,ENST,Q1703563,Sandnessjøen Airport,Q20,Norway,Q217808,Alstahaug,65.956666666667,12.468888888889,SSJ,Q1004686,Sandnessjøen,66.016666666667,12.633333333333
NO,ENTC,Q2413018,Tromsø Airport,Q20,Norway,Q26087,Tromsø municipality,69.681388888889,18.917777777778,TOS,Q26087,Tromsø municipality,69.666667,18.933333
NO,ENTO,Q957105,"Sandefjord Airport, Torp",Q20,Norway,Q109005,Sandefjord,59.186666666667,10.258611111111,TRF,Q109005,Sandefjord,59.12881,10.21971
NO,ENVA,Q729886,Trondheim Airport,Q20,Norway,Q217802,Stjørdal,63.4575,10.924166666667,TRD,Q25804,Trondheim,63.44,10.4
NO,ENVD,Q182789,Vadsø Airport,Q20,Norway,Q104379,Vadsø,70.065277777778,29.844722222222,VDS,Q104379,Vadsø,70.073333333333,29.749722222222
NO,ENZV,Q1355258,Stavanger Airport,Q20,Norway,Q488948,Sola,58.876666666667,5.6377777777778,SVG,Q25416,Stavanger,58.97,5.71
PL,EPBY,Q1407275,Bydgoszcz Ignacy Jan Paderewski Airport,Q36,Poland,Q9352494,Szwederowo,53.096666666667,17.977777777778,BZG,Q41252,Bydgoszcz,53.116666666667,18
PL,EPKK,Q581545,John Paul II International Airport Kraków-Balice,Q36,Poland,Q138828,Balice,50.077777777778,19.784722222222,KRK,Q31487,Kraków,50.061388888889,19.937222222222
PL,EPKT,Q1162558,Katowice International Airport,Q36,Poland,Q998353,Pyrzowice,50.474166666667,19.08,KTW,Q588,Katowice,50.25,19
PL,EPLB,Q620446,Lublin Airport,Q36,Poland,Q387387,Świdnik,51.231944444444,22.690277777778,LUZ,Q37333,Lublin,51.233333333333,22.566666666667
PL,EPLL,Q764554,Łódź Władysław Reymont Airport,Q36,Poland,Q11763097,NA,51.721944444444,19.398055555556,LCJ,Q580,Łódź,51.776944444444,19.454722222222
PL,EPPO,Q1361639,Poznań-Ławica Airport,Q36,Poland,Q268,Poznań,52.421111111111,16.826388888889,POZ,Q268,Poznań,52.4083333333333,16.9336111111111
PL,EPRZ,Q1432651,Rzeszów-Jasionka Airport,Q36,Poland,Q6161591,"Jasionka, Rzeszów County",50.11,22.018888888889,RZE,Q598,Rzeszów,50.05,22
PL,EPSC,Q1432917,"""Solidarity"" Szczecin-Goleniów Airport",Q36,Poland,Q5569525,Glewice,53.584722222222,14.902222222222,SZZ,Q393,Szczecin,53.424722222222,14.555277777778
PL,EPWR,Q1107152,Wrocław – Copernicus Airport,Q36,Poland,Q1799,Wrocław,51.102777777778,16.885833333333,WRO,Q1799,Wrocław,51.11,17.0325
PT,LPFL,Q1431319,Flores Airport,Q45,Portugal,Q25263,Azores,39.458055555556,-31.132222222222,FLW,Q1003134,Santa Cruz das Flores,39.45,-31.116666666667
PT,LPFR,Q667001,Faro Airport,Q45,Portugal,Q159457,Faro,37.014444444444,-7.9658333333333,FAO,Q159457,Faro,37.0161111111111,-7.935
PT,LPGR,Q176634,Graciosa Airport,Q45,Portugal,Q25263,Azores,39.0925,-28.028611111111,GRW,Q1010463,Santa Cruz da Graciosa,39.083333333333,-28.016666666667
PT,LPHR,Q1431519,Horta Airport,Q45,Portugal,Q25263,Azores,38.52,-28.716388888889,HOR,Q990385,Horta,38.533333333333,-28.633333333333
PT,LPLA,Q1800787,Lajes Field,Q45,Portugal,Q25263,Azores,38.761944444444,-27.090833333333,TER,Q73046,Praia da Vitória,38.733333333333,-27.066666666667
PT,LPMA,Q639161,Madeira Airport,Q45,Portugal,Q658823,Santa Cruz,32.694166666667,-16.778055555556,FNC,Q26253,Madeira,32.75,-17
PT,LPPD,Q1432424,João Paulo II Airport,Q45,Portugal,Q25263,Azores,37.741944444444,-25.697777777778,PDL,Q208149,Ponta Delgada,37.74,-25.67
PT,LPPI,Q1432366,Pico Airport,Q45,Portugal,Q25263,Azores,38.554444444444,-28.441388888889,PIX,Q1019053,Lajes do Pico,38.4,-28.25
PT,LPPR,Q943743,Francisco de Sá Carneiro Airport,Q45,Portugal,Q2652989,Metropolitan Area of Porto,41.235555555556,-8.6780555555556,OPO,Q36433,Porto,41.149472222222,-8.6107777777778
PT,LPPS,Q1432485,Porto Santo Airport,Q45,Portugal,Q27320,Porto Santo,33.070833333333,-16.349722222222,PXO,Q27320,Porto Santo,33.061944444444,-16.356388888889
PT,LPPT,Q403671,Lisbon Airport,Q45,Portugal,Q1786397,Santa Maria dos Olivais,38.774167,-9.134167,LIS,Q597,Lisbon,38.708042,-9.139016
PT,LPSJ,Q1432951,São Jorge Airport,Q45,Portugal,Q25263,Azores,38.663333333333,-28.170277777778,SJZ,Q1010468,Velas,38.681722222222,-28.207944444444
RO,LRBC,Q1147758,Bacău International Airport,Q218,Romania,NA,NA,46.521944444444,26.910277777778,BCM,Q10737004,Bacău,46.583333333333,26.916666666667
RO,LRCL,Q1068685,Cluj International Airport,Q218,Romania,Q182624,Cluj County,46.785092,23.68612,CLJ,Q100188,Cluj-Napoca,46.78,23.559444444444
RO,LRCV,Q1431146,Craiova Airport,Q218,Romania,Q168057,Craiova,44.318055555556,23.888611111111,CRA,Q168057,Craiova,44.333333333333,23.816666666667
RO,LRIA,Q1431529,Iași International Airport,Q218,Romania,Q46852,Iași,47.178888888889,27.62,IAS,Q46852,Iași,47.162222222222,27.588888888889
RO,LROP,Q257631,Henri Coandă International Airport,Q218,Romania,Q727421,Otopeni,44.571111111111,26.085,OTP,Q19660,Bucharest,44.4,26.083333333333
RO,LRSB,Q946418,Sibiu International Airport,Q218,Romania,Q83324,Sibiu,45.7890231,24.0949867,SBZ,Q83324,Sibiu,45.8,24.15
RO,LRSV,Q1303153,Suceava Airport,Q218,Romania,Q253825,Salcea,47.6875,26.354166666667,SCV,Q46400,Suceava,47.651388888889,26.255555555556
RO,LRTM,Q645100,Târgu Mureș International Airport,Q218,Romania,Q190711,Mureș County,46.467777777778,24.4125,TGM,Q186349,Târgu Mureș,46.549722222222,24.559722222222
RO,LRTR,Q1417736,Traian Vuia International Airport,Q218,Romania,Q83404,Timișoara,45.81,21.338055555556,TSR,Q185586,Timiș County,45.78,21.35
RS,LYBE,Q127955,Belgrade Nikola Tesla Airport,Q403,Serbia,NA,NA,44.819444444444,20.306944444444,BEG,Q3711,Belgrade,44.816666666667,20.466666666667
RS,LYNI,Q1262128,Niš Constantine the Great Airport,Q403,Serbia,Q129259,Niš,43.337222222222,21.853611111111,INI,Q129259,Niš,43.319166666667,21.896111111111
SE,ESDF,Q2137328,Ronneby Airport,Q34,Sweden,Q515373,Ronneby Municipality,56.266666666667,15.265,RNB,Q823785,Ronneby,56.206853148042,15.279077865671
SE,ESGG,Q1137115,Gothenburg-Landvetter Airport,Q34,Sweden,Q500125,Härryda Municipality,57.66,12.291111111111,GOT,Q25287,Gothenburg,57.671706102705,11.980966694056
SE,ESGT,Q1933087,Trollhättan-Vänersborg Airport,Q34,Sweden,Q28532,Trollhättan Municipality,58.324166666667,12.336388888889,THN,Q54339,Trollhättan,58.282777777778,12.289166666667
SE,ESMK,Q3503582,Kristianstad Airport,Q34,Sweden,Q498857,Kristianstad Municipality,55.911944444444,14.083333333333,KID,Q26937,Kristianstad,56.020638039461,14.125652290656
SE,ESMQ,Q2296338,Kalmar Airport,Q34,Sweden,Q508153,Kalmar Municipality,56.685277777778,16.2875,KLR,Q26345,Kalmar,56.66942341193,16.32178525819
SE,ESMS,Q898922,Malmö Airport,Q34,Sweden,Q515706,Svedala Municipality,55.53,13.371388888889,MMX,Q2211,Malmö,55.593188589918,13.021423031021
SE,ESMT,Q2181363,Halmstad Airport,Q34,Sweden,Q504692,Halmstad Municipality,56.690833333333,12.82,HAD,Q26521,Halmstad,56.65838790191,12.900364987591
SE,ESMX,Q1155940,Växjö/Kronoberg Airport,Q34,Sweden,Q500217,Växjö Municipality,56.928888888889,14.727777777778,VXO,Q26152,Växjö,56.889029924861,14.802795326212
SE,ESNN,Q2673180,Sundsvall-Timrå Airport,Q34,Sweden,Q504983,Timrå Municipality,62.528055555556,17.443888888889,SDL,Q504983,Timrå Municipality,62.5,17.333333333333
SE,ESNO,Q2673175,Örnsköldsvik Airport,Q34,Sweden,Q298003,Örnsköldsvik Municipality,63.408333333333,18.99,OER,Q28327,Örnsköldsvik,63.265490487805,18.676183350641
SE,ESNQ,Q1431740,Kiruna Airport,Q34,Sweden,Q499474,Kiruna Municipality,67.821388888889,20.335555555556,KRN,Q83232,Kiruna,67.8488888888889,20.3027777777778
SE,ESNS,Q1432884,Skellefteå Airport,Q34,Sweden,Q430780,Skellefteå Municipality,64.624722222222,21.076944444444,SFT,Q54344,Skellefteå,64.75067,20.95279
SE,ESNU,Q1433148,Umeå Airport,Q34,Sweden,Q507709,Umeå Municipality,63.793055,20.28,UME,Q25579,Umeå,63.828453583518,20.270566462023
SE,ESNZ,Q1433305,Åre Östersund Airport,Q34,Sweden,Q306789,Östersund Municipality,63.194166666667,14.501944444444,OSD,Q26515,Östersund,63.179175,14.6360063888889
SE,ESOE,Q2625512,Örebro Airport,Q34,Sweden,Q297718,Örebro Municipality,59.223611111111,15.038055555556,ORB,Q25732,Örebro,59.2669260014,15.196522467624
SE,ESPA,Q1431971,Luleå-Kallax Airport,Q34,Sweden,Q177019,Luleå Municipality,65.543611111111,22.121944444444,LLA,Q26268,Luleå,65.583820878214,22.191498303076
SE,ESSL,Q1431883,Linköping/Saab Airport,Q34,Sweden,Q499410,Linköping Municipality,58.408333333333,15.672777777778,LPI,Q25413,Linköping,58.409418037448,15.625656134134
SE,ESSV,Q1433208,Visby Airport,Q34,Sweden,Q374794,Gotland Municipality,57.662777777778,18.346111111111,VBY,Q54757,Visby,57.628997457133,18.307108945039
SE,ESTA,Q1914256,Ängelholm-Helsingborg Airport,Q34,Sweden,Q255206,Ängelholm Municipality,56.296111111111,12.847222222222,AGH,Q54755,Ängelholm,56.24,12.86
SI,LJLJ,Q1109558,Ljubljana Jože Pučnik Airport,Q215,Slovenia,Q1851230,Zgornji Brnik,46.224444444444,14.456111111111,LJU,Q437,Ljubljana,46.05,14.516666666667
SK,LZIB,Q828379,M. R. Štefánik Airport,Q214,Slovakia,Q183498,Bratislava Region,48.17,17.212777777778,BTS,Q1780,Bratislava,48.144722222222,17.112777777778
SK,LZKZ,Q777774,Košice International Airport,Q214,Slovakia,Q377416,Košice-Barca,48.663055555556,21.241111111111,KSC,Q25409,Košice,48.716666666667,21.25
TR,LTAC,Q430490,Ankara Esenboğa Airport,Q43,Turkey,Q3640,Ankara,40.128055555556,32.995,ESB,Q3640,Ankara,39.93,32.85
TR,LTAF,Q1430728,Adana Şakirpaşa Airport,Q43,Turkey,Q38545,Adana,36.981944,35.280278,ADA,Q246831,Çukurova,36.866666666667,35.483333333333
TR,LTAI,Q827480,Antalya Airport,Q43,Turkey,Q6487,Antalya,36.900277777778,30.792777777778,AYT,Q6487,Antalya,36.90812,30.69556
TR,LTAJ,Q1431357,Oğuzeli Airport,Q43,Turkey,Q1022230,Oğuzeli,36.947777777778,37.478888888889,GZT,Q93338,Gaziantep,37.066666666667,37.383333333333
TR,LTAN,Q1431754,Konya Airport,Q43,Turkey,Q79857,Konya,37.978889,32.561667,KYA,Q79857,Konya,37.871388888889,32.484722222222
TR,LTAP,Q1164142,Amasya Merzifon Airport,Q43,Turkey,Q958135,Merzifon,40.829166666667,35.521944444444,MZH,Q170532,Amasya,40.65,35.833333333333
TR,LTAR,Q1432867,Sivas Airport,Q43,Turkey,Q483100,Sivas Province,39.766666666667,37.016666666667,VAS,Q107401,Sivas,39.75,37.016666666667
TR,LTAT,Q1432008,Malatya Erhaç Airport,Q43,Turkey,Q165995,Malatya,38.435277777778,38.090833333333,MLX,Q165995,Malatya,38.355365,38.333694
TR,LTAU,Q1431698,Erkilet International Airport,Q43,Turkey,Q48338,Kayseri,38.770277777778,35.495277777778,ASR,Q48338,Kayseri,38.7225,35.4875
TR,LTAY,Q1431199,Denizli Çardak Airport,Q43,Turkey,Q272634,Çardak,37.785555555556,29.701111111111,DNZ,Q272634,Çardak,37.825001,29.668598
TR,LTAZ,Q1432167,Nevşehir Kapadokya Airport,Q43,Turkey,Q430693,Nevşehir Province,38.776388,34.526388,"NAV",Q206879,Nevşehir,38.625,34.712222222222
TR,LTBH,Q1433288,Çanakkale Airport,Q43,Turkey,Q199712,Çanakkale,40.137722222222,26.426777777778,CKZ,Q199712,Çanakkale,40.15,26.4
TR,LTBJ,Q504382,İzmir Adnan Menderes Airport,Q43,Turkey,Q1496685,Gaziemir,38.289166666667,27.155,ADB,Q35997,İzmir,38.41273,27.13838
TR,LTBQ,Q1961428,Cengiz Topel Naval Air Station,Q43,Turkey,Q2578786,Kartepe,40.73502778,30.08333611,KCO,Q129649,İzmit,40.7655555555556,29.9405555555556
TR,LTBR,Q250026,Yenişehir Airport,Q43,Turkey,Q40738,Bursa,40.255,29.5625,YEI,Q1994764,Yenişehir,40.264444444444,29.653055555556
TR,LTBS,Q1431180,Dalaman Airport,Q43,Turkey,Q847295,Dalaman,36.714722,28.792778,DLM,Q847295,Dalaman,36.766666666667,28.8
TR,LTBY,Q1431269,Hasan Polatkan Airport,Q43,Turkey,Q168866,Eskişehir,39.81,30.519444444444,AOE,Q168866,Eskişehir,39.776666666667,30.520555555556
TR,LTCA,Q1431244,Elazığ Airport,Q43,Turkey,Q174060,Elazığ,38.606666666667,39.291388888889,EZS,Q174060,Elazığ,38.666666666667,39.216666666667
TR,LTCB,Q15264265,Ordu Giresun Airport,Q43,Turkey,Q2670812,Gülyalı,40.96666667,38.06666667,OGU,Q184539,Ordu,40.983333333333,37.883333333333
TR,LTCC,Q525377,Diyarbakır Airport,Q43,Turkey,Q83387,Diyarbakır,37.893888888889,40.200833333333,DIY,Q83387,Diyarbakır,37.910833333333,40.236666666667
TR,LTCD,Q1431262,Erzincan Airport,Q43,Turkey,Q136217,Erzincan,39.71,39.526944444444,ERC,Q136217,Erzincan,39.746388888889,39.491388888889
TR,LTCE,Q1431265,Erzurum Airport,Q43,Turkey,Q122803,Erzurum,39.955277777778,41.169166666667,ERZ,Q122803,Erzurum,39.909722222222,41.275555555556
TR,LTCF,Q1315027,Kars Airport,Q43,Turkey,Q83077,Kars Province,40.562222222222,43.115002777778,KSY,Q127063,Kars,40.6077777777778,43.0958333333333
TR,LTCG,Q1169859,Trabzon Airport,Q43,Turkey,Q16258125,Ortahisar,40.9951,39.7897,TZX,Q45301,Trabzon,41.005,39.7225
TR,LTCI,Q1431293,Van Ferit Melen Airport,Q43,Turkey,Q16848468,İpekyolu,38.468333333333,43.332222222222,VAN,Q83061,Van,38.501944444444,43.416666666667
TR,LTCJ,Q1163824,Batman Airport,Q43,Turkey,NA,NA,37.932222222222,41.116388888889,BAL,Q159835,Batman,37.883333333333,41.133333333333
TR,LTCK,Q1432103,Muş Airport,Q43,Turkey,NA,NA,38.744722222222,41.653888888889,MSR,Q118995,Muş,38.733333333333,41.491111111111
TR,LTCN,Q1431619,Kahramanmaraş Airport,Q43,Turkey,Q482834,Kahramanmaraş Province,37.538888888889,36.953333333333,KCM,Q134703,Marash,37.5875,36.945277777778
TR,LTCO,Q1307034,Ağrı Ahmed-i Hani Airport,Q43,Turkey,Q199575,Ağrı,39.654444444444,43.027222222222,AJI,Q199575,Ağrı,39.7225,43.054444444444
TR,LTCP,Q1430726,Adıyaman Airport,Q43,Turkey,Q43924,Adıyaman Province,37.731666666667,38.468888888889,ADF,Q168197,Adıyaman,37.7644,38.2763
TR,LTCR,Q1030285,Mardin Airport,Q43,Turkey,Q693929,Kızıltepe,37.223336111111,40.631666666667,MQM,Q188022,Mardin,37.316666666667,40.737777777778
TR,LTCS,Q1433329,Şanlıurfa GAP Airport,Q43,Turkey,Q388469,Şanlıurfa Province,37.45,38.9,GNY,Q133118,Şanlıurfa,37.158333333333,38.791666666667
TR,LTCT,Q12810075,Iğdır Airport,Q43,Turkey,Q483331,Iğdır,39.98305556,43.86638889,IGD,Q483331,Iğdır,39.92371,44.045
TR,LTCU,Q15199335,Bingöl Airport,Q43,Turkey,Q79760,Bingöl Province,38.86111111,40.5925,BGG,Q208472,Bingöl,38.886111111111,40.501666666667
TR,LTCV,Q14303983,Şırnak Airport,Q43,Turkey,Q821363,Cizre,37.36388889,42.06,NKT,Q131495,Şırnak,37.516388888889,42.461111111111
TR,LTCW,Q15222582,Hakkari Yüksekova Airport,Q43,Turkey,Q2176882,Yüksekova,37.56666667,44.28333333,YKO,Q206895,Hakkâri,37.574444444444,43.740833333333
TR,LTDA,Q1430806,Hatay Airport,Q43,Turkey,Q174341,İskenderun,36.362777777778,36.282222222222,HTY,Q80561,Antakya,36.2025,36.1605555555556
TR,LTFC,Q1264524,Isparta Süleyman Demirel Airport,Q43,Turkey,NA,NA,37.865,30.381944444444,ISE,Q171031,Isparta,37.766666666667,30.55
TR,LTFD,Q1431233,Balıkesir Koca Seyit Airport,Q43,Turkey,Q1021818,Edremit,39.554588888889,27.013833333333,EDO,Q1021818,Edremit,39.596111111111,27.024444444444
TR,LTFE,Q766860,Milas-Bodrum Airport,Q43,Turkey,Q172267,Bodrum,37.250555555556,27.664166666667,BJV,Q172267,Bodrum,37.03833,27.42917
TR,LTFG,Q1431354,Antalya Gazipasa-Alanya Airport,Q43,Turkey,Q844779,Gazipaşa,36.298875,32.303262,GZP,Q844779,Gazipaşa,36.272777777778,32.313055555556
TR,LTFH,Q1432694,Samsun-Çarşamba Airport,Q43,Turkey,Q483040,Samsun Province,41.265555555556,36.548611111111,SZF,Q160450,Samsun,41.286666666667,36.33
TR,LTFK,Q3275365,Gökçeada Airport,Q43,Turkey,Q658437,Imbros,40.20111111,25.88222222,GKD,Q658437,Imbros,40.160833333333,25.844444444444
UK,EGAE,Q1431211,City of Derry Airport,Q145,United Kingdom,Q853298,Eglinton,55.042777777778,-7.1619444444444,LDY,Q163584,Derry,54.991666666667,-7.3416666666667
UK,EGBB,Q8719,Birmingham Airport,Q145,United Kingdom,Q1612248,Bickenhill,52.453888888889,-1.7480555555556,BHX,Q2256,Birmingham,52.48,-1.9025
UK,EGCN,Q8996,Doncaster Sheffield Airport,Q145,United Kingdom,Q1618003,Finningley,53.475277777778,-1.0041666666667,DSA,Q58900,Doncaster,53.5227777777778,-1.1325
UK,EGFF,Q8994,Cardiff Airport,Q145,United Kingdom,Q25,Wales,51.396666666667,-3.3433333333333,CWL,Q10690,Cardiff,51.48,-3.18
UK,EGGD,Q8725,Bristol Airport,Q145,United Kingdom,Q178196,North Somerset,51.382778,-2.719167,BRS,Q23154,Bristol,51.45,-2.5833333333333
UK,EGGP,Q8727,Liverpool John Lennon Airport,Q145,United Kingdom,Q3492981,Speke,53.333611111111,-2.8497222222222,LPL,Q24826,Liverpool,53.4075,-2.99194444444444
UK,EGHE,Q2305515,St Mary's Airport,Q145,United Kingdom,Q23148,Cornwall,49.913333333333,-6.2916666666667,ISC,Q22336916,Trenoweth,49.932,-6.296
UK,EGHH,Q580409,Bournemouth Airport,Q145,United Kingdom,Q2511901,Hurn,50.78,-1.8425,BOH,Q170478,Bournemouth,50.72,-1.88
UK,EGHI,Q8988,Southampton Airport,Q145,United Kingdom,Q894083,Eastleigh,50.950277777778,-1.3566666666667,SOU,Q79848,Southampton,50.9066666666667,-1.40444444444444
UK,EGHQ,Q477555,Cornwall Airport Newquay,Q145,United Kingdom,Q950800,St Mawgan,50.440833333333,-4.9952777777778,NQY,Q943517,Newquay,50.412,-5.0757
UK,EGJA,Q2559952,Alderney Airport,Q145,United Kingdom,Q993064,Saint Anne,49.706666666667,-2.2144444444444,ACI,Q179313,Alderney,49.714444444444,-2.2052777777778
UK,EGJB,Q8995,Guernsey Airport,Q145,United Kingdom,Q2324169,Forest,49.435,-2.6019444444444,GCI,Q25230,Guernsey,49.45,-2.5833333333333
UK,EGJJ,Q8991,Jersey Airport,Q785,Jersey,Q3058152,Saint Peter,49.208055555556,-2.1952777777778,JER,Q785,Jersey,49.19,-2.11
UK,EGNJ,Q1636811,Humberside Airport,Q145,United Kingdom,Q175945,North Lincolnshire,53.574444444444,-0.35083333333333,HUY,Q23088,East Riding of Yorkshire,53.916666666667,-0.5
UK,EGNM,Q8699,Leeds Bradford Airport,Q145,United Kingdom,Q2281068,Yeadon,53.865833333333,-1.6605555555556,LBA,Q39121,Leeds,53.799722222222,-1.5491666666667
UK,EGNS,Q9001,Isle of Man Airport,Q9676,Isle of Man,Q2292403,Ronaldsway,54.083333333333,-4.6238888888889,IOM,Q9676,Isle of Man,54.235,-4.525
UK,EGNT,Q8975,Newcastle International Airport,Q145,United Kingdom,Q2665950,Woolsington,55.0375,-1.6916666666667,NCL,Q23080,Tyne and Wear,54.974,-1.6132
UK,EGNV,Q667216,Durham Tees Valley Airport,Q145,United Kingdom,Q213181,Darlington,54.509166666667,-1.4294444444444,MME,Q47983,North East England,55,-1.8666666666667
UK,EGNX,Q8977,East Midlands Airport,Q145,United Kingdom,Q23106,Leicestershire,52.831111111111,-1.3280555555556,EMA,Q41262,Nottingham,52.955,-1.1491666666667
UK,EGPA,Q1431732,Kirkwall Airport,Q145,United Kingdom,Q100166,Orkney Islands,58.958055555556,-2.9005555555556,KOI,Q148749,Mainland,58.983333333333,-3.1
UK,EGPD,Q8981,Aberdeen Airport,Q145,United Kingdom,Q62274582,Aberdeen City,57.201944,-2.197778,ABZ,Q36405,Aberdeen,57.15,-2.1
UK,EGPE,Q1431553,Inverness Airport,Q145,United Kingdom,Q208279,Highland,57.5425,-4.0475,INV,Q160493,Inverness,57.483888888889,-4.2258333333333
UK,EGPH,Q8716,Edinburgh Airport,Q145,United Kingdom,Q2379199,City of Edinburgh,55.95,-3.3725,EDI,Q23436,Edinburgh,55.95,-3.1988888888889
UK,EGPO,Q2667407,Stornoway Airport,Q145,United Kingdom,Q80967,Outer Hebrides,58.215555555556,-6.3311111111111,SYY,Q165845,Stornoway,58.209,-6.387
UK,EGSH,Q349673,Norwich International Airport,Q145,United Kingdom,Q130191,Norwich,52.6758,1.28278,NWI,Q130191,Norwich,52.628056,1.299167
UK,EGTE,Q8999,Exeter Airport,Q145,United Kingdom,Q48026,South West England,50.734444444444,-3.4138888888889,EXT,Q134672,Exeter,50.721538888889,-3.5331083333333
XK,LYPR,Q643783,Pristina International Airport Adem Jashari,Q1246,Kosovo,Q25270,Pristina,42.572777777778,21.035833333333,PRN,Q25270,Pristina,42.666666666667,21.166666666667
BE,EBBR,Q28934,Brussels Airport,Q31,Belgium,Q28898,Zaventem,50.901388888889,4.4844444444444,BRU,Q239,Brussels,50.8466666666667,4.35166666666667
BE,EBCI,Q1431012,Brussels South Charleroi Airport,Q31,Belgium,Q81046,Charleroi,50.46409,4.465158,CRL,Q239,Brussels,50.8466666666667,4.35166666666667
DE,EDDB,Q160556,Berlin Brandenburg Airport,Q183,Germany,Q521475,Schönefeld,52.3622466666667,13.5006716666667,BER,Q64,Berlin,52.516666666667,13.383333333333
DE,EDDF,Q46033,Frankfurt Airport,Q183,Germany,Q560737,Frankfurt-Flughafen,50.033333333333,8.5705555555556,FRA,Q1794,Frankfurt,50.113611111111,8.6797222222222
DE,EDDH,Q27706,Hamburg Airport,Q183,Germany,Q3928,Norderstedt,53.630278,9.991111,HAM,Q1055,Hamburg,53.55,10
DE,EDDT,Q9688,Berlin-Tegel Airport,Q183,Germany,Q158876,Reinickendorf,52.559722,13.287778,TXL,Q64,Berlin,52.516666666667,13.383333333333
DE,EDFH,Q158211,Frankfurt-Hahn Airport,Q183,Germany,Q8574,Rhein-Hunsrück-Kreis,49.948333333333,7.2641666666667,HHN,Q1794,Frankfurt,50.113611111111,8.6797222222222
DE,EDHI,Q663819,Hamburg Finkenwerder Airport,Q183,Germany,Q1626,Hamburg-Mitte,53.535833,9.836944,XFW,Q1055,Hamburg,53.55,10
DK,EKBI,Q598121,Billund Airport,Q35,Denmark,Q27875,Billund Municipality,55.740277777778,9.1519444444444,BLL,Q1701099,Billund,55.730833333333,9.1152777777778
ES,GCTS,Q821984,Tenerife South Airport,Q29,Spain,Q943431,Granadilla de Abona,28.044444444444,-16.5725,TFS,Q40846,Tenerife,28.268611111111,-16.605555555556
ES,GCXO,Q932514,Tenerife North Airport,Q29,Spain,Q54898,San Cristóbal de La Laguna,28.488047222222,-16.345913888889,TFN,Q40846,Tenerife,28.268611111111,-16.605555555556
ES,LEAL,Q849314,Alicante Airport,Q29,Spain,Q54936,Alicante Province,38.282222222222,-0.55805555555556,ALC,Q11959,Alicante,38.345277777778,-0.48305555555556
ES,LEAS,Q1430901,Ranon Airport,Q29,Spain,Q653861,Castrillón,43.563611111111,-6.0347222222222,OVD,Q14317,Oviedo,43.3625,-5.8502777777778
ES,LEST,Q1432777,Santiago–Rosalía de Castro Airport,Q29,Spain,Q14314,Santiago de Compostela,42.896333,-8.415145,SCQ,Q14314,Santiago de Compostela,42.883333333333,-8.5333333333333
FR,LFOB,Q611983,Beauvais-Tillé Airport,Q142,France,Q1335428,Tillé,49.454444,2.112778,BVA,Q90,Paris,48.856944444444,2.3513888888889
FR,LFPG,Q46280,Paris-Charles de Gaulle Airport,Q142,France,Q680463,Roissy-en-France,49.009722222222,2.5477777777778,CDG,Q90,Paris,48.856944444444,2.3513888888889
FR,LFPO,Q223416,Orly Airport,Q142,France,Q236058,Orly,48.723333,2.379444,ORY,Q90,Paris,48.856944444444,2.3513888888889
IS,BIKF,Q139921,Keflavík Airport,Q189,Iceland,Q170693,Keflavík,63.985,-22.605555555556,KEF,Q1764,Reykjavík,64.1475,-21.935
IS,BIRK,Q843204,Reykjavík Airport,Q189,Iceland,Q203304,Capital Region,64.13,-21.940555555556,RKV,Q1764,Reykjavík,64.1475,-21.935
IT,LIMC,Q60910,Milan–Malpensa Airport,Q38,Italy,Q40588,Somma Lombardo,45.63,8.7230555555556,MXP,Q490,Milan,45.466944444444,9.19
IT,LIME,Q517873,Il Caravaggio International Airport,Q38,Italy,Q101309,Orio al Serio,45.66547,9.69948,BGY,Q490,Milan,45.466944444444,9.19
IT,LIML,Q828386,Linate Airport,Q38,Italy,Q42902,Segrate,45.4609,9.28,LIN,Q490,Milan,45.466944444444,9.19
IT,LIPH,Q513474,Treviso Airport,Q38,Italy,Q5475,Treviso,45.650833333333,12.197777777778,TSF,Q641,Venice,45.439722222222,12.331944444444
IT,LIPZ,Q849347,Venice Marco Polo Airport,Q38,Italy,Q18503713,"Tessera, Venice",45.505277777778,12.351944444444,VCE,Q641,Venice,45.439722222222,12.331944444444
IT,LIRA,Q1132616,Ciampino–G.B. Pastine International Airport,Q38,Italy,Q242513,Ciampino,41.799444444444,12.597222222222,CIA,Q220,Rome,41.893055555556,12.482777777778
IT,LIRF,Q19101,Leonardo da Vinci–Fiumicino Airport,Q38,Italy,Q19326,Fiumicino,41.800277777778,12.238888888889,FCO,Q220,Rome,41.893055555556,12.482777777778
NO,ENEV,Q1431455,Harstad/Narvik Airport,Q20,Norway,Q48897,Evenes,68.4913,16.678108333333,EVE,Q59101,Narvik,68.43828,17.42777
PL,EPGD,Q779984,Gdańsk Lech Wałęsa Airport,Q36,Poland,Q1792,Gdańsk,54.3775,18.466111111111,GDN,Q1792,Gdańsk,54.366666666667,18.633333333333
PL,EPMO,Q1401995,Warsaw-Modlin Mazovia Airport,Q36,Poland,Q690039,Nowy Dwór Mazowiecki,52.451111111111,20.651666666667,WMI,Q270,Warsaw,52.216666666667,21.033333333333
PL,EPWA,Q465071,Warsaw Chopin Airport,Q36,Poland,Q7082802,"Okęcie, Warsaw",52.165833333333,20.967222222222,WAW,Q270,Warsaw,52.216666666667,21.033333333333
PT,LPAZ,Q1432755,Santa Maria Airport,Q45,Portugal,Q25263,Azores,36.971388888889,-25.170638888889,SMA,Q1003164,Vila do Porto,36.945,-25.145
PT,LPPO,Q17354136,SANTA MARIA OAC/FIR,Q45,Portugal,Q1003164,Vila do Porto,36.9737,-25.1693,"NA",Q1003164,Vila do Porto,36.945,-25.145
SE,ESKN,Q664946,Stockholm Skavsta Airport,Q34,Sweden,Q500267,Nyköping Municipality,58.788611111111,16.912222222222,NYO,Q1754,Stockholm,59.329444444444,18.068611111111
SE,ESSA,Q223499,Stockholm Arlanda Airport,Q34,Sweden,Q216915,Sigtuna Municipality,59.651944444444,17.918611111111,ARN,Q1754,Stockholm,59.329444444444,18.068611111111
SE,ESSB,Q29863,Stockholm Bromma Airport,Q34,Sweden,Q506250,Stockholm Municipality,59.354444444444,17.939722222222,BMA,Q1754,Stockholm,59.329444444444,18.068611111111
TR,LTBA,Q86473,Atatürk International Airport,Q43,Turkey,Q752528,Bakırköy,40.976111111111,28.814166666667,ISL,Q406,Istanbul,41.01,28.960277777778
TR,LTFJ,Q723622,Istanbul Sabiha Gökçen International Airport,Q43,Turkey,Q857056,Pendik,40.898333333333,29.309166666667,SAW,Q406,Istanbul,41.01,28.960277777778
TR,LTFM,Q3661908,Istanbul Airport,Q43,Turkey,Q691764,Arnavutköy,41.260833333333,28.742222222222,IST,Q406,Istanbul,41.01,28.960277777778
UK,EGAA,Q8979,Belfast International Airport,Q145,United Kingdom,Q1816016,Aldergrove,54.6575,-6.215833,BFS,Q10686,Belfast,54.596388888889,-5.93
UK,EGAC,Q8987,George Best Belfast City Airport,Q145,United Kingdom,Q7231086,Port of Belfast,54.615486,-5.871233,BHD,Q10686,Belfast,54.596388888889,-5.93
UK,EGCC,Q8694,Manchester Airport,Q145,United Kingdom,Q257052,Ringway,53.353889,-2.275,MAN,Q18125,Manchester,53.466666666667,-2.2333333333333
UK,EGGW,Q8712,London Luton Airport,Q145,United Kingdom,Q21683239,Luton,51.874722,-0.368333,LTN,Q84,London,51.507222222222,-0.1275
UK,EGKK,Q8703,Gatwick Airport,Q145,United Kingdom,Q21886073,Crawley,51.147222222222,-0.19027777777778,LGW,Q84,London,51.507222222222,-0.1275
UK,EGLC,Q8982,London City Airport,Q145,United Kingdom,Q208139,London Borough of Newham,51.505278,0.055278,LCY,Q84,London,51.507222222222,-0.1275
UK,EGLL,Q8691,Heathrow Airport,Q145,United Kingdom,Q205690,London Borough of Hillingdon,51.4775,-0.461389,LHR,Q84,London,51.507222222222,-0.1275
UK,EGMC,Q1415441,London Southend Airport,Q145,United Kingdom,Q1926981,Rochford,51.570277777778,0.69333333333333,SEN,Q84,London,51.507222222222,-0.1275
UK,EGPB,Q1432932,Sumburgh Airport,Q145,United Kingdom,Q47134,Shetland Islands,59.881388888889,-1.2938888888889,LSI,Q47134,Shetland Islands,60.35685,-1.26068
UK,EGPF,Q8721,Glasgow Airport,Q145,United Kingdom,Q211091,Renfrewshire,55.871944444444,-4.4330555555556,GLA,Q4093,Glasgow,55.8611111111111,-4.25
UK,EGPK,Q8992,Glasgow Prestwick Airport,Q145,United Kingdom,Q209131,South Ayrshire,55.509444444444,-4.5944444444444,PIK,Q4093,Glasgow,55.8611111111111,-4.25
UK,EGPM,Q1915140,Scatsta Airport,Q145,United Kingdom,Q47134,Shetland Islands,60.432777777778,-1.2961111111111,SCS,Q47134,Shetland Islands,60.35685,-1.26068
UK,EGSS,Q8709,London Stansted Airport,Q145,United Kingdom,Q126579,Stansted Mountfitchet,51.885,0.235,STN,Q84,London,51.507222222222,-0.1275
